CUBEBUG-2 (LO-74)       
1 39440U 13066AA  26183.13443484  .00005533  00000+0  50993-3 0  9991
2 39440  97.8914 132.1769 0056725 339.6462  20.2496 14.93886243679224
FUNCUBE-1 (AO-73)       
1 39444U 13066AE  26183.16970451  .00007525  00000+0  46384-3 0  9999
2 39444  97.8285 154.9304 0037286 150.1022 210.2346 15.09671649681920
UWE-3                   
1 39446U 13066AG  26182.85315259  .00003431  00000+0  29591-3 0  9998
2 39446  97.8710 139.0279 0047128 271.0445  88.5377 14.97133222679774
UNISAT-6                
1 40012U 14033C   26183.05897245  .00002708  00000+0  29336-3 0  9990
2 40012  97.7896 335.5103 0045277  21.2318 339.0764 14.88318256648373
DUCHIFAT-1              
1 40021U 14033M   26183.10087887  .00143832  00000+0  12875-2 0  9992
2 40021  98.0445 244.3920 0000096 180.5510 179.5749 15.67889029658082
QB50P1                  
1 40025U 14033R   26182.97796174  .00010559  00000+0  51493-3 0  9995
2 40025  98.0959 195.1628 0009347 164.7109 195.4407 15.18486932655278
LILACSAT-2              
1 40908U 15049K   26183.29808275  .00018652  00000+0  31164-3 0  9990
2 40908  97.4622 220.7172 0007173 182.2733 177.8487 15.51951818598095
FOX-1A (AO-85)          
1 40967U 15058D   26183.30990585  .00002565  00000+0  23448-3 0  9995
2 40967  64.7737 231.9854 0131423  50.7128 310.5553 14.91032716115824
CAS-2T & KS-1Q          
1 41847U 16066G   26183.20052415  .00001716  00000+0  24678-3 0  9996
2 41847  98.3818 258.7650 0342799  84.0826 279.9322 14.44743358506961
RADFXSAT (FOX-1B)       
1 43017U 17073E   26183.15636973  .00007671  00000+0  33553-3 0  9995
2 43017  97.4681  50.0656 0148185 277.0157  81.4241 15.12917223467651
DIWATA-2B               
1 43678U 18084H   26183.24100034  .00001958  00000+0  16033-3 0  9991
2 43678  98.1199  20.1062 0013112 123.5561 236.6916 15.00516039418476
ES'HAIL 2               
1 43700U 18090A   26183.23122860  .00000155  00000+0  00000+0 0  9995
2 43700   0.0187  28.4554 0002254 107.3914 253.4562  1.00272976 27828
FOX-1CLIFF (AO-95)      
1 43770U 18099N   26183.15097082  .00013279  00000+0  50270-3 0  9998
2 43770  97.4375 243.3441 0006914 296.3718  63.6811 15.27030068415507
ITASAT                  
1 43786U 18099AE  26183.10558688  .00008023  00000+0  38326-3 0  9993
2 43786  97.4016 234.3205 0010886 303.6087  56.4108 15.19241797415174
JY1SAT (JO-97)          
1 43803U 18099AX  26183.10016290  .00021273  00000+0  64498-3 0  9992
2 43803  97.4121 245.9901 0005605 200.3543 159.7477 15.34136694415919
UWE-4                   
1 43880U 18111E   26183.29050887  .00037505  00000+0  74011-3 0  9999
2 43880  97.5850 112.3872 0004397 256.7047 103.3712 15.47074786413113
TIANYAN 01              
1 44881U 19093C   26183.32459193  .00000238  00000+0  32898-4 0  9999
2 44881  97.7532 255.1874 0014599  41.9444 318.2888 14.86541603353665
RS-44 & BREEZE-KM R/B   
1 44909U 19096E   26183.17231246  .00000005  00000+0 -32954-4 0  9999
2 44909  82.5226 329.7468 0218529 109.2871 253.2006 12.79748910304268
SALSAT                  
1 46495U 20068K   26183.25417133  .00008637  00000+0  29987-3 0  9991
2 46495  97.8847 187.2381 0008037 243.7769 116.2645 15.30013367317666
XW-3 (CAS-9)            
1 50466U 21131B   26183.25734465  .00000590  00000+0  19594-3 0  9999
2 50466  98.4992 275.5654 0005196  62.8008 297.3710 14.41371480237287
GREENCUBE (IO-117)      
1 53109U 22080E   26181.72466670 -.00000003  00000+0  00000+0 0  9998
2 53109  70.1437 293.5372 0008958 286.6703  73.2973  6.42583253 92937
UMKA 1 (RS40S)          
1 57172U 23091G   26183.29199806  .00007349  00000+0  33372-3 0  9994
2 57172  97.5041 241.9319 0014078  71.0489 289.2271 15.20995200166308
CUBESX-HSE 3 (RS42S)    
1 57178U 23091N   26183.26785197  .00015737  00000+0  51692-3 0  9996
2 57178  97.5083 249.0485 0011038  46.9388 313.2775 15.31599062166737
MONITOR-3 (RS58S)       
1 57180U 23091Q   26183.26047063  .00012685  00000+0  46376-3 0  9994
2 57180  97.5074 246.8191 0012298  53.4010 306.8359 15.28148382166594
MONITOR-4 (RS57S)       
1 57182U 23091S   26183.23869180  .00012201  00000+0  44504-3 0  9990
2 57182  97.5069 246.7692 0012322  53.8732 306.3646 15.28233604166594
MONITOR-2 (RS39S)       
1 57184U 23091U   26183.26648652  .00005640  00000+0  27187-3 0  9991
2 57184  97.5061 241.4524 0012458  65.3109 294.9421 15.19051360166242
SVYATOBOR 1 (RS60S)     
1 57187U 23091X   26183.26492519  .00010780  00000+0  41044-3 0  9992
2 57187  97.5080 247.1669 0010030  48.1865 312.0229 15.26872842166614
VIZARD-METEO (RS38S)    
1 57189U 23091Z   26183.25907522  .00019149  00000+0  53869-3 0  9994
2 57189  97.5085 253.0502 0006965  29.1957 330.9675 15.36509778167000
POLYTECH-UNIVERSE 3 (R*)
1 57191U 23091AB  26183.29166199  .00006216  00000+0  29699-3 0  9993
2 57191  97.5037 240.9817 0016944  79.2029 281.1112 15.19260990166247
UTMN 2 (RS27S)          
1 57203U 23091AP  26183.27726002  .00015199  00000+0  48712-3 0  9997
2 57203  97.5080 250.7101 0008121  36.6708 323.5087 15.32424161166859
